{"features":[{"geometry":{"coordinates":[[[-100.019047,37.74712],[-100.019077,37.747056],[-100.019121,37.746997],[-100.019179,37.746945],[-100.019247,37.746904],[-100.019325,37.746873],[-100.019408,37.746855],[-100.019494,37.746849],[-100.01958,37.746857],[-100.019663,37.746877],[-100.019739,37.74691],[-100.019806,37.746953],[-100.019862,37.747006],[-100.019903,37.747066],[-100.01993,37.747131],[-100.019941,37.747199],[-100.019942,37.747235],[-100.019927,37.747337],[-100.019428,37.748844],[-100.019397,37.74891],[-100.019351,37.74897],[-100.01929,37.749022],[-100.019218,37.749063],[-100.019138,37.749093],[-100.019051,37.749109],[-100.018962,37.749112],[-100.018875,37.749101],[-100.018791,37.749077],[-100.018716,37.74904],[-100.01865,37.748992],[-100.018598,37.748935],[-100.01856,37.748871],[-100.018539,37.748803],[-100.018536,37.748732],[-100.018549,37.748663],[-100.019047,37.74712]]],"type":"Polygon"},"properties":{"anomaly_ids":["ANM-0025","ANM-0036","ANM-0038"],"cluster_id":1,"first_started_at":"2026-09-25T06:00:00Z","last_ended_at":"2026-10-01T04:00:00Z","max_severity":"high","n_anomalies":3,"n_assets":2,"n_sensors":3,"sensor_types":["pressure","temperature","vibration"]},"type":"Feature"},{"geometry":{"coordinates":[[[-100.012693,37.752133],[-100.012781,37.75213],[-100.012869,37.752141],[-100.012952,37.752166],[-100.013027,37.752202],[-100.013092,37.75225],[-100.013144,37.752306],[-100.013182,37.75237],[-100.013203,37.752438],[-100.013207,37.752508],[-100.013194,37.752578],[-100.013164,37.752644],[-100.013119,37.752704],[-100.01306,37.752756],[-100.011245,37.754073],[-100.011173,37.754116],[-100.01109,37.754147],[-100.011002,37.754164],[-100.010912,37.754167],[-100.010822,37.754155],[-100.010737,37.75413],[-100.01066,37.754092],[-100.009109,37.753134],[-100.009044,37.753085],[-100.008993,37.753028],[-100.008957,37.752964],[-100.008937,37.752895],[-100.008935,37.752825],[-100.008949,37.752755],[-100.008981,37.75269],[-100.009027,37.75263],[-100.009088,37.752578],[-100.00916,37.752537],[-100.009241,37.752508],[-100.009327,37.752492],[-100.012693,37.752133]]],"type":"Polygon"},"properties":{"anomaly_ids":["ANM-0029","ANM-0031","ANM-0035","ANM-0040","ANM-0041"],"cluster_id":2,"first_started_at":"2026-09-27T23:00:00Z","last_ended_at":"2026-10-01T04:00:00Z","max_severity":"high","n_anomalies":5,"n_assets":5,"n_sensors":5,"sensor_types":["moisture","pressure","temperature","vibration"]},"type":"Feature"},{"geometry":{"coordinates":[[[-100.016814,37.753843],[-100.016787,37.753775],[-100.016778,37.753703],[-100.016786,37.753631],[-100.016813,37.753562],[-100.016856,37.753499],[-100.016914,37.753444],[-100.016985,37.753399],[-100.017066,37.753366],[-100.017153,37.753347],[-100.017243,37.753341],[-100.017333,37.75335],[-100.017419,37.753373],[-100.017498,37.75341],[-100.017565,37.753457],[-100.01762,37.753515],[-100.018352,37.754474],[-100.01839,37.754538],[-100.018412,37.754607],[-100.018417,37.754678],[-100.018404,37.754748],[-100.018374,37.754815],[-100.018328,37.754876],[-100.018268,37.754928],[-100.018196,37.75497],[-100.018115,37.755],[-100.018028,37.755017],[-100.017939,37.755021],[-100.017888,37.755018],[-100.017804,37.755009],[-100.017725,37.754987],[-100.017652,37.754954],[-100.017588,37.754911],[-100.017535,37.754859],[-100.017079,37.754319],[-100.017038,37.75426],[-100.016814,37.753843]]],"type":"Polygon"},"properties":{"anomaly_ids":["ANM-0030","ANM-0032","ANM-0034","ANM-0037"],"cluster_id":3,"first_started_at":"2026-09-28T07:00:00Z","last_ended_at":"2026-10-01T04:00:00Z","max_severity":"high","n_anomalies":4,"n_assets":4,"n_sensors":4,"sensor_types":["moisture","pressure","temperature","vibration"]},"type":"Feature"}],"type":"FeatureCollection"}