{"as_of":"2026-10-01T04:00:00Z","features":[{"geometry":{"coordinates":[[[-100.03,37.746838],[-100.02895,37.746848],[-100.028083,37.745684],[-100.028568,37.745],[-100.03,37.745],[-100.03,37.746838]]],"type":"Polygon"},"properties":{"anomaly_count":0,"cell_id":"1819_16081","risk_level":"low","risk_score":0},"type":"Feature"},{"geometry":{"coordinates":[[[-100.03,37.74918],[-100.028983,37.749189],[-100.028115,37.748026],[-100.02895,37.746848],[-100.03,37.746838],[-100.03,37.74918]]],"type":"Polygon"},"properties":{"anomaly_count":0,"cell_id":"1819_16082","risk_level":"low","risk_score":0},"type":"Feature"},{"geometry":{"coordinates":[[[-100.03,37.751522],[-100.029015,37.75153],[-100.028148,37.750367],[-100.028983,37.749189],[-100.03,37.74918],[-100.03,37.751522]]],"type":"Polygon"},"properties":{"anomaly_count":0,"cell_id":"1819_16083","risk_level":"low","risk_score":5.49},"type":"Feature"},{"geometry":{"coordinates":[[[-100.03,37.753863],[-100.029048,37.753872],[-100.02818,37.752708],[-100.029015,37.75153],[-100.03,37.751522],[-100.03,37.753863]]],"type":"Polygon"},"properties":{"anomaly_count":0,"cell_id":"1819_16084","risk_level":"moderate","risk_score":28.55},"type":"Feature"},{"geometry":{"coordinates":[[[-100.03,37.756205],[-100.02908,37.756213],[-100.028213,37.75505],[-100.029048,37.753872],[-100.03,37.753863],[-100.03,37.756205]]],"type":"Polygon"},"properties":{"anomaly_count":1,"cell_id":"1819_16085","risk_level":"high","risk_score":51.1},"type":"Feature"},{"geometry":{"coordinates":[[[-100.03,37.758547],[-100.029113,37.758554],[-100.028245,37.757391],[-100.02908,37.756213],[-100.03,37.756205],[-100.03,37.758547]]],"type":"Polygon"},"properties":{"anomaly_count":0,"cell_id":"1819_16086","risk_level":"moderate","risk_score":31.37},"type":"Feature"},{"geometry":{"coordinates":[[[-100.03,37.760888],[-100.029145,37.760896],[-100.028278,37.759732],[-100.029113,37.758554],[-100.03,37.758547],[-100.03,37.760888]]],"type":"Polygon"},"properties":{"anomaly_count":0,"cell_id":"1819_16087","risk_level":"low","risk_score":6.72},"type":"Feature"},{"geometry":{"coordinates":[[[-100.03,37.762],[-100.028362,37.762],[-100.029145,37.760896],[-100.03,37.760888],[-100.03,37.762]]],"type":"Polygon"},"properties":{"anomaly_count":0,"cell_id":"1819_16088","risk_level":"low","risk_score":1.08},"type":"Feature"},{"geometry":{"coordinates":[[[-100.028083,37.745684],[-100.026381,37.745699],[-100.02586,37.745],[-100.028568,37.745],[-100.028083,37.745684]]],"type":"Polygon"},"properties":{"anomaly_count":0,"cell_id":"1820_16081","risk_level":"low","risk_score":0.79},"type":"Feature"},{"geometry":{"coordinates":[[[-100.028115,37.748026],[-100.026413,37.748041],[-100.025546,37.746877],[-100.026381,37.745699],[-100.028083,37.745684],[-100.02895,37.746848],[-100.028115,37.748026]]],"type":"Polygon"},"properties":{"anomaly_count":0,"cell_id":"1820_16082","risk_level":"low","risk_score":1.09},"type":"Feature"},{"geometry":{"coordinates":[[[-100.028148,37.750367],[-100.026445,37.750382],[-100.025578,37.749219],[-100.026413,37.748041],[-100.028115,37.748026],[-100.028983,37.749189],[-100.028148,37.750367]]],"type":"Polygon"},"properties":{"anomaly_count":0,"cell_id":"1820_16083","risk_level":"low","risk_score":2.02},"type":"Feature"},{"geometry":{"coordinates":[[[-100.02818,37.752708],[-100.026478,37.752723],[-100.02561,37.75156],[-100.026445,37.750382],[-100.028148,37.750367],[-100.029015,37.75153],[-100.02818,37.752708]]],"type":"Polygon"},"properties":{"anomaly_count":0,"cell_id":"1820_16084","risk_level":"low","risk_score":11.84},"type":"Feature"},{"geometry":{"coordinates":[[[-100.028213,37.75505],[-100.02651,37.755065],[-100.025643,37.753901],[-100.026478,37.752723],[-100.02818,37.752708],[-100.029048,37.753872],[-100.028213,37.75505]]],"type":"Polygon"},"properties":{"anomaly_count":0,"cell_id":"1820_16085","risk_level":"moderate","risk_score":36.04},"type":"Feature"},{"geometry":{"coordinates":[[[-100.028245,37.757391],[-100.026542,37.757406],[-100.025675,37.756243],[-100.02651,37.755065],[-100.028213,37.75505],[-100.02908,37.756213],[-100.028245,37.757391]]],"type":"Polygon"},"properties":{"anomaly_count":0,"cell_id":"1820_16086","risk_level":"moderate","risk_score":38.76},"type":"Feature"},{"geometry":{"coordinates":[[[-100.028278,37.759732],[-100.026575,37.759747],[-100.025707,37.758584],[-100.026542,37.757406],[-100.028245,37.757391],[-100.029113,37.758554],[-100.028278,37.759732]]],"type":"Polygon"},"properties":{"anomaly_count":0,"cell_id":"1820_16087","risk_level":"low","risk_score":14.94},"type":"Feature"},{"geometry":{"coordinates":[[[-100.028362,37.762],[-100.026541,37.762],[-100.02574,37.760925],[-100.026575,37.759747],[-100.028278,37.759732],[-100.029145,37.760896],[-100.028362,37.762]]],"type":"Polygon"},"properties":{"anomaly_count":0,"cell_id":"1820_16088","risk_level":"low","risk_score":2.48},"type":"Feature"},{"geometry":{"coordinates":[[[-100.026381,37.745699],[-100.025546,37.746877],[-100.023843,37.746892],[-100.022976,37.745729],[-100.023492,37.745001],[-100.02586,37.745],[-100.026381,37.745699]]],"type":"Polygon"},"properties":{"anomaly_count":0,"cell_id":"1821_16081","risk_level":"low","risk_score":7.48},"type":"Feature"},{"geometry":{"coordinates":[[[-100.025578,37.749219],[-100.023876,37.749233],[-100.023008,37.74807],[-100.023843,37.746892],[-100.025546,37.746877],[-100.026413,37.748041],[-100.025578,37.749219]]],"type":"Polygon"},"properties":{"anomaly_count":0,"cell_id":"1821_16082","risk_level":"low","risk_score":8.15},"type":"Feature"},{"geometry":{"coordinates":[[[-100.02561,37.75156],[-100.023908,37.751575],[-100.023041,37.750411],[-100.023876,37.749233],[-100.025578,37.749219],[-100.026445,37.750382],[-100.02561,37.75156]]],"type":"Polygon"},"properties":{"anomaly_count":0,"cell_id":"1821_16083","risk_level":"low","risk_score":6.12},"type":"Feature"},{"geometry":{"coordinates":[[[-100.025643,37.753901],[-100.02394,37.753916],[-100.023073,37.752753],[-100.023908,37.751575],[-100.02561,37.75156],[-100.026478,37.752723],[-100.025643,37.753901]]],"type":"Polygon"},"properties":{"anomaly_count":0,"cell_id":"1821_16084","risk_level":"low","risk_score":13.67},"type":"Feature"},{"geometry":{"coordinates":[[[-100.025675,37.756243],[-100.023972,37.756257],[-100.023105,37.755094],[-100.02394,37.753916],[-100.025643,37.753901],[-100.02651,37.755065],[-100.025675,37.756243]]],"type":"Polygon"},"properties":{"anomaly_count":0,"cell_id":"1821_16085","risk_level":"low","risk_score":24.01},"type":"Feature"},{"geometry":{"coordinates":[[[-100.025707,37.758584],[-100.024005,37.758599],[-100.023137,37.757436],[-100.023972,37.756257],[-100.025675,37.756243],[-100.026542,37.757406],[-100.025707,37.758584]]],"type":"Polygon"},"properties":{"anomaly_count":0,"cell_id":"1821_16086","risk_level":"low","risk_score":17.52},"type":"Feature"},{"geometry":{"coordinates":[[[-100.02574,37.760925],[-100.024037,37.76094],[-100.02317,37.759777],[-100.024005,37.758599],[-100.025707,37.758584],[-100.026575,37.759747],[-100.02574,37.760925]]],"type":"Polygon"},"properties":{"anomaly_count":0,"cell_id":"1821_16087","risk_level":"low","risk_score":6.33},"type":"Feature"},{"geometry":{"coordinates":[[[-100.024037,37.76094],[-100.02574,37.760925],[-100.026541,37.762],[-100.023285,37.762001],[-100.024037,37.76094]]],"type":"Polygon"},"properties":{"anomaly_count":0,"cell_id":"1821_16088","risk_level":"low","risk_score":2.47},"type":"Feature"},{"geometry":{"coordinates":[[[-100.022976,37.745729],[-100.021274,37.745744],[-100.02072,37.745001],[-100.023492,37.745001],[-100.022976,37.745729]]],"type":"Polygon"},"properties":{"anomaly_count":0,"cell_id":"1822_16081","risk_level":"low","risk_score":24.3},"type":"Feature"},{"geometry":{"coordinates":[[[-100.023008,37.74807],[-100.021306,37.748085],[-100.020439,37.746922],[-100.021274,37.745744],[-100.022976,37.745729],[-100.023843,37.746892],[-100.023008,37.74807]]],"type":"Polygon"},"properties":{"anomaly_count":0,"cell_id":"1822_16082","risk_level":"moderate","risk_score":31.56},"type":"Feature"},{"geometry":{"coordinates":[[[-100.023041,37.750411],[-100.021338,37.750426],[-100.020471,37.749263],[-100.021306,37.748085],[-100.023008,37.74807],[-100.023876,37.749233],[-100.023041,37.750411]]],"type":"Polygon"},"properties":{"anomaly_count":0,"cell_id":"1822_16083","risk_level":"low","risk_score":23.45},"type":"Feature"},{"geometry":{"coordinates":[[[-100.023073,37.752753],[-100.02137,37.752768],[-100.020503,37.751604],[-100.021338,37.750426],[-100.023041,37.750411],[-100.023908,37.751575],[-100.023073,37.752753]]],"type":"Polygon"},"properties":{"anomaly_count":0,"cell_id":"1822_16084","risk_level":"low","risk_score":19},"type":"Feature"},{"geometry":{"coordinates":[[[-100.023105,37.755094],[-100.021402,37.755109],[-100.020535,37.753946],[-100.02137,37.752768],[-100.023073,37.752753],[-100.02394,37.753916],[-100.023105,37.755094]]],"type":"Polygon"},"properties":{"anomaly_count":0,"cell_id":"1822_16085","risk_level":"moderate","risk_score":30.65},"type":"Feature"},{"geometry":{"coordinates":[[[-100.023137,37.757436],[-100.021435,37.75745],[-100.020567,37.756287],[-100.021402,37.755109],[-100.023105,37.755094],[-100.023972,37.756257],[-100.023137,37.757436]]],"type":"Polygon"},"properties":{"anomaly_count":0,"cell_id":"1822_16086","risk_level":"moderate","risk_score":28.11},"type":"Feature"},{"geometry":{"coordinates":[[[-100.02317,37.759777],[-100.021467,37.759792],[-100.020599,37.758628],[-100.021435,37.75745],[-100.023137,37.757436],[-100.024005,37.758599],[-100.02317,37.759777]]],"type":"Polygon"},"properties":{"anomaly_count":0,"cell_id":"1822_16087","risk_level":"low","risk_score":13.6},"type":"Feature"},{"geometry":{"coordinates":[[[-100.023285,37.762001],[-100.0214,37.762001],[-100.020632,37.76097],[-100.021467,37.759792],[-100.02317,37.759777],[-100.024037,37.76094],[-100.023285,37.762001]]],"type":"Polygon"},"properties":{"anomaly_count":0,"cell_id":"1822_16088","risk_level":"low","risk_score":5.39},"type":"Feature"},{"geometry":{"coordinates":[[[-100.021274,37.745744],[-100.020439,37.746922],[-100.018736,37.746936],[-100.017869,37.745773],[-100.018417,37.745001],[-100.02072,37.745001],[-100.021274,37.745744]]],"type":"Polygon"},"properties":{"anomaly_count":0,"cell_id":"1823_16081","risk_level":"moderate","risk_score":47.51},"type":"Feature"},{"geometry":{"coordinates":[[[-100.020471,37.749263],[-100.018768,37.749278],[-100.017901,37.748114],[-100.018736,37.746936],[-100.020439,37.746922],[-100.021306,37.748085],[-100.020471,37.749263]]],"type":"Polygon"},"properties":{"anomaly_count":1,"cell_id":"1823_16082","risk_level":"moderate","risk_score":49.81},"type":"Feature"},{"geometry":{"coordinates":[[[-100.020503,37.751604],[-100.0188,37.751619],[-100.017933,37.750456],[-100.018768,37.749278],[-100.020471,37.749263],[-100.021338,37.750426],[-100.020503,37.751604]]],"type":"Polygon"},"properties":{"anomaly_count":0,"cell_id":"1823_16083","risk_level":"moderate","risk_score":36.62},"type":"Feature"},{"geometry":{"coordinates":[[[-100.020535,37.753946],[-100.018833,37.75396],[-100.017965,37.752797],[-100.0188,37.751619],[-100.020503,37.751604],[-100.02137,37.752768],[-100.020535,37.753946]]],"type":"Polygon"},"properties":{"anomaly_count":0,"cell_id":"1823_16084","risk_level":"high","risk_score":58.12},"type":"Feature"},{"geometry":{"coordinates":[[[-100.020567,37.756287],[-100.018865,37.756302],[-100.017997,37.755138],[-100.018833,37.75396],[-100.020535,37.753946],[-100.021402,37.755109],[-100.020567,37.756287]]],"type":"Polygon"},"properties":{"anomaly_count":0,"cell_id":"1823_16085","risk_level":"high","risk_score":70.94},"type":"Feature"},{"geometry":{"coordinates":[[[-100.020599,37.758628],[-100.018897,37.758643],[-100.018029,37.75748],[-100.018865,37.756302],[-100.020567,37.756287],[-100.021435,37.75745],[-100.020599,37.758628]]],"type":"Polygon"},"properties":{"anomaly_count":0,"cell_id":"1823_16086","risk_level":"moderate","risk_score":40.54},"type":"Feature"},{"geometry":{"coordinates":[[[-100.020632,37.76097],[-100.018929,37.760984],[-100.018062,37.759821],[-100.018897,37.758643],[-100.020599,37.758628],[-100.021467,37.759792],[-100.020632,37.76097]]],"type":"Polygon"},"properties":{"anomaly_count":0,"cell_id":"1823_16087","risk_level":"low","risk_score":14.68},"type":"Feature"},{"geometry":{"coordinates":[[[-100.018929,37.760984],[-100.020632,37.76097],[-100.0214,37.762001],[-100.018208,37.762001],[-100.018929,37.760984]]],"type":"Polygon"},"properties":{"anomaly_count":0,"cell_id":"1823_16088","risk_level":"low","risk_score":5.89},"type":"Feature"},{"geometry":{"coordinates":[[[-100.017869,37.745773],[-100.016167,37.745788],[-100.01558,37.745001],[-100.018417,37.745001],[-100.017869,37.745773]]],"type":"Polygon"},"properties":{"anomaly_count":0,"cell_id":"1824_16081","risk_level":"moderate","risk_score":32.83},"type":"Feature"},{"geometry":{"coordinates":[[[-100.017901,37.748114],[-100.016199,37.748129],[-100.015331,37.746966],[-100.016167,37.745788],[-100.017869,37.745773],[-100.018736,37.746936],[-100.017901,37.748114]]],"type":"Polygon"},"properties":{"anomaly_count":0,"cell_id":"1824_16082","risk_level":"moderate","risk_score":41.13},"type":"Feature"},{"geometry":{"coordinates":[[[-100.017933,37.750456],[-100.016231,37.75047],[-100.015363,37.749307],[-100.016199,37.748129],[-100.017901,37.748114],[-100.018768,37.749278],[-100.017933,37.750456]]],"type":"Polygon"},"properties":{"anomaly_count":0,"cell_id":"1824_16083","risk_level":"moderate","risk_score":37.34},"type":"Feature"},{"geometry":{"coordinates":[[[-100.017965,37.752797],[-100.016263,37.752812],[-100.015395,37.751648],[-100.016231,37.75047],[-100.017933,37.750456],[-100.0188,37.751619],[-100.017965,37.752797]]],"type":"Polygon"},"properties":{"anomaly_count":0,"cell_id":"1824_16084","risk_level":"high","risk_score":58.08},"type":"Feature"},{"geometry":{"coordinates":[[[-100.017997,37.755138],[-100.016295,37.755153],[-100.015427,37.75399],[-100.016263,37.752812],[-100.017965,37.752797],[-100.018833,37.75396],[-100.017997,37.755138]]],"type":"Polygon"},"properties":{"anomaly_count":2,"cell_id":"1824_16085","risk_level":"very_high","risk_score":96.93},"type":"Feature"},{"geometry":{"coordinates":[[[-100.018029,37.75748],[-100.016327,37.757494],[-100.015459,37.756331],[-100.016295,37.755153],[-100.017997,37.755138],[-100.018865,37.756302],[-100.018029,37.75748]]],"type":"Polygon"},"properties":{"anomaly_count":0,"cell_id":"1824_16086","risk_level":"very_high","risk_score":83.21},"type":"Feature"},{"geometry":{"coordinates":[[[-100.018062,37.759821],[-100.016359,37.759836],[-100.015491,37.758672],[-100.016327,37.757494],[-100.018029,37.75748],[-100.018897,37.758643],[-100.018062,37.759821]]],"type":"Polygon"},"properties":{"anomaly_count":0,"cell_id":"1824_16087","risk_level":"moderate","risk_score":42.81},"type":"Feature"},{"geometry":{"coordinates":[[[-100.018208,37.762001],[-100.016259,37.762001],[-100.015524,37.761014],[-100.016359,37.759836],[-100.018062,37.759821],[-100.018929,37.760984],[-100.018208,37.762001]]],"type":"Polygon"},"properties":{"anomaly_count":0,"cell_id":"1824_16088","risk_level":"low","risk_score":14.5},"type":"Feature"},{"geometry":{"coordinates":[[[-100.016167,37.745788],[-100.015331,37.746966],[-100.013629,37.74698],[-100.012762,37.745817],[-100.013341,37.745001],[-100.01558,37.745001],[-100.016167,37.745788]]],"type":"Polygon"},"properties":{"anomaly_count":0,"cell_id":"1825_16081","risk_level":"low","risk_score":13.74},"type":"Feature"},{"geometry":{"coordinates":[[[-100.015363,37.749307],[-100.013661,37.749322],[-100.012794,37.748158],[-100.013629,37.74698],[-100.015331,37.746966],[-100.016199,37.748129],[-100.015363,37.749307]]],"type":"Polygon"},"properties":{"anomaly_count":0,"cell_id":"1825_16082","risk_level":"low","risk_score":18.91},"type":"Feature"},{"geometry":{"coordinates":[[[-100.015395,37.751648],[-100.013693,37.751663],[-100.012826,37.7505],[-100.013661,37.749322],[-100.015363,37.749307],[-100.016231,37.75047],[-100.015395,37.751648]]],"type":"Polygon"},"properties":{"anomaly_count":0,"cell_id":"1825_16083","risk_level":"moderate","risk_score":41.11},"type":"Feature"},{"geometry":{"coordinates":[[[-100.015427,37.75399],[-100.013725,37.754004],[-100.012858,37.752841],[-100.013693,37.751663],[-100.015395,37.751648],[-100.016263,37.752812],[-100.015427,37.75399]]],"type":"Polygon"},"properties":{"anomaly_count":0,"cell_id":"1825_16084","risk_level":"very_high","risk_score":83.37},"type":"Feature"},{"geometry":{"coordinates":[[[-100.015459,37.756331],[-100.013757,37.756346],[-100.01289,37.755182],[-100.013725,37.754004],[-100.015427,37.75399],[-100.016295,37.755153],[-100.015459,37.756331]]],"type":"Polygon"},"properties":{"anomaly_count":0,"cell_id":"1825_16085","risk_level":"very_high","risk_score":91.33},"type":"Feature"},{"geometry":{"coordinates":[[[-100.015491,37.758672],[-100.013789,37.758687],[-100.012922,37.757524],[-100.013757,37.756346],[-100.015459,37.756331],[-100.016327,37.757494],[-100.015491,37.758672]]],"type":"Polygon"},"properties":{"anomaly_count":0,"cell_id":"1825_16086","risk_level":"high","risk_score":66.34},"type":"Feature"},{"geometry":{"coordinates":[[[-100.015524,37.761014],[-100.013821,37.761028],[-100.012953,37.759865],[-100.013789,37.758687],[-100.015491,37.758672],[-100.016359,37.759836],[-100.015524,37.761014]]],"type":"Polygon"},"properties":{"anomaly_count":0,"cell_id":"1825_16087","risk_level":"moderate","risk_score":32.45},"type":"Feature"},{"geometry":{"coordinates":[[[-100.013821,37.761028],[-100.015524,37.761014],[-100.016259,37.762001],[-100.013131,37.762001],[-100.013821,37.761028]]],"type":"Polygon"},"properties":{"anomaly_count":0,"cell_id":"1825_16088","risk_level":"low","risk_score":12.15},"type":"Feature"},{"geometry":{"coordinates":[[[-100.012762,37.745817],[-100.01106,37.745832],[-100.01044,37.745],[-100.013341,37.745001],[-100.012762,37.745817]]],"type":"Polygon"},"properties":{"anomaly_count":0,"cell_id":"1826_16081","risk_level":"low","risk_score":2.39},"type":"Feature"},{"geometry":{"coordinates":[[[-100.012794,37.748158],[-100.011091,37.748173],[-100.010224,37.74701],[-100.01106,37.745832],[-100.012762,37.745817],[-100.013629,37.74698],[-100.012794,37.748158]]],"type":"Polygon"},"properties":{"anomaly_count":0,"cell_id":"1826_16082","risk_level":"low","risk_score":4.98},"type":"Feature"},{"geometry":{"coordinates":[[[-100.012826,37.7505],[-100.011123,37.750514],[-100.010256,37.749351],[-100.011091,37.748173],[-100.012794,37.748158],[-100.013661,37.749322],[-100.012826,37.7505]]],"type":"Polygon"},"properties":{"anomaly_count":0,"cell_id":"1826_16083","risk_level":"low","risk_score":22.32},"type":"Feature"},{"geometry":{"coordinates":[[[-100.012858,37.752841],[-100.011155,37.752856],[-100.010288,37.751692],[-100.011123,37.750514],[-100.012826,37.7505],[-100.013693,37.751663],[-100.012858,37.752841]]],"type":"Polygon"},"properties":{"anomaly_count":1,"cell_id":"1826_16084","risk_level":"high","risk_score":66.83},"type":"Feature"},{"geometry":{"coordinates":[[[-100.01289,37.755182],[-100.011187,37.755197],[-100.01032,37.754034],[-100.011155,37.752856],[-100.012858,37.752841],[-100.013725,37.754004],[-100.01289,37.755182]]],"type":"Polygon"},"properties":{"anomaly_count":1,"cell_id":"1826_16085","risk_level":"very_high","risk_score":87.87},"type":"Feature"},{"geometry":{"coordinates":[[[-100.012922,37.757524],[-100.011219,37.757538],[-100.010352,37.756375],[-100.011187,37.755197],[-100.01289,37.755182],[-100.013757,37.756346],[-100.012922,37.757524]]],"type":"Polygon"},"properties":{"anomaly_count":0,"cell_id":"1826_16086","risk_level":"high","risk_score":62.54},"type":"Feature"},{"geometry":{"coordinates":[[[-100.012953,37.759865],[-100.011251,37.75988],[-100.010384,37.758716],[-100.011219,37.757538],[-100.012922,37.757524],[-100.013789,37.758687],[-100.012953,37.759865]]],"type":"Polygon"},"properties":{"anomaly_count":0,"cell_id":"1826_16087","risk_level":"moderate","risk_score":34.99},"type":"Feature"},{"geometry":{"coordinates":[[[-100.013131,37.762001],[-100.011118,37.762],[-100.010415,37.761058],[-100.011251,37.75988],[-100.012953,37.759865],[-100.013821,37.761028],[-100.013131,37.762001]]],"type":"Polygon"},"properties":{"anomaly_count":0,"cell_id":"1826_16088","risk_level":"low","risk_score":12.22},"type":"Feature"},{"geometry":{"coordinates":[[[-100.01106,37.745832],[-100.010224,37.74701],[-100.008522,37.747024],[-100.007655,37.745861],[-100.008265,37.745],[-100.01044,37.745],[-100.01106,37.745832]]],"type":"Polygon"},"properties":{"anomaly_count":0,"cell_id":"1827_16081","risk_level":"low","risk_score":1.15},"type":"Feature"},{"geometry":{"coordinates":[[[-100.010256,37.749351],[-100.008554,37.749366],[-100.007687,37.748202],[-100.008522,37.747024],[-100.010224,37.74701],[-100.011091,37.748173],[-100.010256,37.749351]]],"type":"Polygon"},"properties":{"anomaly_count":0,"cell_id":"1827_16082","risk_level":"low","risk_score":7.42},"type":"Feature"},{"geometry":{"coordinates":[[[-100.010288,37.751692],[-100.008586,37.751707],[-100.007718,37.750543],[-100.008554,37.749366],[-100.010256,37.749351],[-100.011123,37.750514],[-100.010288,37.751692]]],"type":"Polygon"},"properties":{"anomaly_count":0,"cell_id":"1827_16083","risk_level":"moderate","risk_score":32.04},"type":"Feature"},{"geometry":{"coordinates":[[[-100.01032,37.754034],[-100.008617,37.754048],[-100.00775,37.752885],[-100.008586,37.751707],[-100.010288,37.751692],[-100.011155,37.752856],[-100.01032,37.754034]]],"type":"Polygon"},"properties":{"anomaly_count":0,"cell_id":"1827_16084","risk_level":"high","risk_score":62.27},"type":"Feature"},{"geometry":{"coordinates":[[[-100.010352,37.756375],[-100.008649,37.75639],[-100.007782,37.755226],[-100.008617,37.754048],[-100.01032,37.754034],[-100.011187,37.755197],[-100.010352,37.756375]]],"type":"Polygon"},"properties":{"anomaly_count":0,"cell_id":"1827_16085","risk_level":"high","risk_score":51.01},"type":"Feature"},{"geometry":{"coordinates":[[[-100.010384,37.758716],[-100.008681,37.758731],[-100.007814,37.757568],[-100.008649,37.75639],[-100.010352,37.756375],[-100.011219,37.757538],[-100.010384,37.758716]]],"type":"Polygon"},"properties":{"anomaly_count":0,"cell_id":"1827_16086","risk_level":"low","risk_score":22.96},"type":"Feature"},{"geometry":{"coordinates":[[[-100.010415,37.761058],[-100.008713,37.761072],[-100.007845,37.759909],[-100.008681,37.758731],[-100.010384,37.758716],[-100.011251,37.75988],[-100.010415,37.761058]]],"type":"Polygon"},"properties":{"anomaly_count":0,"cell_id":"1827_16087","risk_level":"low","risk_score":8.02},"type":"Feature"},{"geometry":{"coordinates":[[[-100.008713,37.761072],[-100.010415,37.761058],[-100.011118,37.762],[-100.008055,37.762],[-100.008713,37.761072]]],"type":"Polygon"},"properties":{"anomaly_count":0,"cell_id":"1827_16088","risk_level":"low","risk_score":2.71},"type":"Feature"},{"geometry":{"coordinates":[[[-100.007655,37.745861],[-100.005953,37.745875],[-100.0053,37.745],[-100.008265,37.745],[-100.007655,37.745861]]],"type":"Polygon"},"properties":{"anomaly_count":0,"cell_id":"1828_16081","risk_level":"low","risk_score":0.5},"type":"Feature"},{"geometry":{"coordinates":[[[-100.007687,37.748202],[-100.005984,37.748217],[-100.005117,37.747053],[-100.005953,37.745875],[-100.007655,37.745861],[-100.008522,37.747024],[-100.007687,37.748202]]],"type":"Polygon"},"properties":{"anomaly_count":0,"cell_id":"1828_16082","risk_level":"low","risk_score":2.01},"type":"Feature"},{"geometry":{"coordinates":[[[-100.007718,37.750543],[-100.006016,37.750558],[-100.005149,37.749395],[-100.005984,37.748217],[-100.007687,37.748202],[-100.008554,37.749366],[-100.007718,37.750543]]],"type":"Polygon"},"properties":{"anomaly_count":0,"cell_id":"1828_16083","risk_level":"low","risk_score":8.56},"type":"Feature"},{"geometry":{"coordinates":[[[-100.00775,37.752885],[-100.006048,37.752899],[-100.005181,37.751736],[-100.006016,37.750558],[-100.007718,37.750543],[-100.008586,37.751707],[-100.00775,37.752885]]],"type":"Polygon"},"properties":{"anomaly_count":0,"cell_id":"1828_16084","risk_level":"low","risk_score":21.04},"type":"Feature"},{"geometry":{"coordinates":[[[-100.007782,37.755226],[-100.006079,37.755241],[-100.005212,37.754077],[-100.006048,37.752899],[-100.00775,37.752885],[-100.008617,37.754048],[-100.007782,37.755226]]],"type":"Polygon"},"properties":{"anomaly_count":0,"cell_id":"1828_16085","risk_level":"low","risk_score":24.56},"type":"Feature"},{"geometry":{"coordinates":[[[-100.007814,37.757568],[-100.006111,37.757582],[-100.005244,37.756419],[-100.006079,37.755241],[-100.007782,37.755226],[-100.008649,37.75639],[-100.007814,37.757568]]],"type":"Polygon"},"properties":{"anomaly_count":0,"cell_id":"1828_16086","risk_level":"low","risk_score":12.21},"type":"Feature"},{"geometry":{"coordinates":[[[-100.007845,37.759909],[-100.006143,37.759923],[-100.005276,37.75876],[-100.006111,37.757582],[-100.007814,37.757568],[-100.008681,37.758731],[-100.007845,37.759909]]],"type":"Polygon"},"properties":{"anomaly_count":0,"cell_id":"1828_16087","risk_level":"low","risk_score":3.3},"type":"Feature"},{"geometry":{"coordinates":[[[-100.008055,37.762],[-100.005977,37.762],[-100.005307,37.761101],[-100.006143,37.759923],[-100.007845,37.759909],[-100.008713,37.761072],[-100.008055,37.762]]],"type":"Polygon"},"properties":{"anomaly_count":0,"cell_id":"1828_16088","risk_level":"low","risk_score":0.72},"type":"Feature"},{"geometry":{"coordinates":[[[-100.005953,37.745875],[-100.005117,37.747053],[-100.005,37.747054],[-100.005,37.745],[-100.0053,37.745],[-100.005953,37.745875]]],"type":"Polygon"},"properties":{"anomaly_count":0,"cell_id":"1829_16081","risk_level":"low","risk_score":0.59},"type":"Feature"},{"geometry":{"coordinates":[[[-100.005117,37.747053],[-100.005984,37.748217],[-100.005149,37.749395],[-100.005,37.749396],[-100.005,37.747054],[-100.005117,37.747053]]],"type":"Polygon"},"properties":{"anomaly_count":0,"cell_id":"1829_16082","risk_level":"low","risk_score":2.76},"type":"Feature"},{"geometry":{"coordinates":[[[-100.005149,37.749395],[-100.006016,37.750558],[-100.005181,37.751736],[-100.005,37.751738],[-100.005,37.749396],[-100.005149,37.749395]]],"type":"Polygon"},"properties":{"anomaly_count":0,"cell_id":"1829_16083","risk_level":"low","risk_score":7.17},"type":"Feature"},{"geometry":{"coordinates":[[[-100.005181,37.751736],[-100.006048,37.752899],[-100.005212,37.754077],[-100.005,37.754079],[-100.005,37.751738],[-100.005181,37.751736]]],"type":"Polygon"},"properties":{"anomaly_count":0,"cell_id":"1829_16084","risk_level":"low","risk_score":10.77},"type":"Feature"},{"geometry":{"coordinates":[[[-100.005212,37.754077],[-100.006079,37.755241],[-100.005244,37.756419],[-100.005,37.756421],[-100.005,37.754079],[-100.005212,37.754077]]],"type":"Polygon"},"properties":{"anomaly_count":0,"cell_id":"1829_16085","risk_level":"low","risk_score":7.57},"type":"Feature"},{"geometry":{"coordinates":[[[-100.005244,37.756419],[-100.006111,37.757582],[-100.005276,37.75876],[-100.005,37.758762],[-100.005,37.756421],[-100.005244,37.756419]]],"type":"Polygon"},"properties":{"anomaly_count":0,"cell_id":"1829_16086","risk_level":"low","risk_score":2.31},"type":"Feature"},{"geometry":{"coordinates":[[[-100.005276,37.75876],[-100.006143,37.759923],[-100.005307,37.761101],[-100.005,37.761104],[-100.005,37.758762],[-100.005276,37.75876]]],"type":"Polygon"},"properties":{"anomaly_count":0,"cell_id":"1829_16087","risk_level":"low","risk_score":0},"type":"Feature"},{"geometry":{"coordinates":[[[-100.005307,37.761101],[-100.005977,37.762],[-100.005,37.762],[-100.005,37.761104],[-100.005307,37.761101]]],"type":"Polygon"},"properties":{"anomaly_count":0,"cell_id":"1829_16088","risk_level":"low","risk_score":0},"type":"Feature"}],"type":"FeatureCollection"}