{"type":"FeatureCollection","features":[{"type":"Feature","id":30293,"geometry":{"type":"MultiPolygon","coordinates":[[[[-100.05707100012199,37.756043999941134],[-100.05706899957386,37.754877000331575],[-100.05706299972607,37.754709000276137],[-100.05685000018904,37.75469900004942],[-100.05656200030897,37.754686999775593],[-100.05593700014498,37.754639000081227],[-100.05557700029487,37.754609000078908],[-100.0545010000442,37.754521000049223],[-100.05288900021628,37.754377999866598],[-100.05126399996962,37.754262000185889],[-100.05126599961943,37.754024000087931],[-100.05126700034265,37.753984000223106],[-100.05126700034265,37.753951999889559],[-100.0512709996423,37.753610999981099],[-100.05127400001535,37.75331699975235],[-100.05127200036553,37.752566999690124],[-100.0512919995587,37.751055000045447],[-100.0512990001297,37.749803000181188],[-100.05134400033555,37.748270000003366],[-100.05135400038129,37.747543999957067],[-100.05135699985601,37.74735700011535],[-100.05127800021332,37.747355999993381],[-100.05064899985138,37.747351000093602],[-100.05019000026707,37.747347999727417],[-100.04973199960935,37.747343999949244],[-100.04927399984993,37.74734100029309],[-100.04881600009053,37.747337999926494],[-100.0483569996079,37.747334000147781],[-100.0478989998485,37.7473309997809],[-100.04744100008911,37.747327000001818],[-100.0469830003297,37.747324000344918],[-100.04674700032815,37.747322000100077],[-100.04652399984708,37.747320999977632],[-100.04606600008766,37.747317000198002],[-100.04561699965079,37.747313999830425],[-100.04516700028731,37.74731100017307],[-100.04507900042377,37.747310000050426],[-100.04503199966977,37.747310000050426],[-100.04494299998132,37.747308999927824],[-100.04494200015641,37.7473990002539],[-100.04453100025268,37.747395999889648],[-100.04443199962016,37.747392000114068],[-100.04435700017541,37.747389999871061],[-100.04427599998454,37.747388000338269],[-100.04403099976217,37.747387000216726],[-100.04392299980714,37.747386000095155],[-100.03880899959078,37.747348999849493],[-100.03835300037952,37.747346000193545],[-100.03789600044503,37.74734299982709],[-100.03744000033547,37.747340000170908],[-100.03698300040095,37.747335999681972],[-100.0365270002914,37.747333000025499],[-100.0360700003569,37.747329999658525],[-100.03561400024732,37.747325999879436],[-100.03540599983485,37.747324999757048],[-100.03494999972527,37.747322000100077],[-100.03449299979079,37.747318000320554],[-100.03426500018516,37.747317000198002],[-100.03424500009366,37.747317000198002],[-100.03403699968121,37.74731499995297],[-100.03404300042732,37.74686199988313],[-100.0340500001,37.746408999881673],[-100.03405099992492,37.746304999998038],[-100.03425000011654,37.746303999861851],[-100.03546399956117,37.746297999754738],[-100.04031400018688,37.746354999687121],[-100.04034199977596,37.744546000235268],[-100.04034599997392,37.744261999724991],[-100.04035600001967,37.743565999659502],[-100.0399500001388,37.74360200020309],[-100.03954500008285,37.743644000341519],[-100.03877199978088,37.743750000043789],[-100.03833699958768,37.743810999776841],[-100.03793800027783,37.743880000101285],[-100.03754099971947,37.743956000116583],[-100.03714599970928,37.744038000344666],[-100.03428600010156,37.744668999917927],[-100.03423599987285,37.744680000237679],[-100.03407500021434,37.744716000239421],[-100.03407500021434,37.744685999765615],[-100.03407699986418,37.744591999765142],[-100.03409000028297,37.743765999932073],[-100.03410100015363,37.742972999709572],[-100.0341139996741,37.742612999661262],[-100.03481199963302,37.742404000256535],[-100.03483900029551,37.740888000263737],[-100.03490100021979,37.73657599972875],[-100.0349020000447,37.736483999912714],[-100.03531799997131,37.736485999740076],[-100.03655800025354,37.736493999759261],[-100.0365570004286,37.736601000021892],[-100.03654400000983,37.738827999881735],[-100.04219700017642,37.738836999884995],[-100.04229300043589,37.73883800012208],[-100.0423150001772,37.738238999895771],[-100.04233500026868,37.737658000089823],[-100.04263200036961,37.737659000342838],[-100.04515100039377,37.737675000126892],[-100.0462729997769,37.737662999933981],[-100.05141999960522,37.73767699992208],[-100.05142299997827,37.737502000236034],[-100.05142100032845,37.737269000097236],[-100.05141600030558,37.73677699997144],[-100.0514609996131,37.736567000161052],[-100.05049499986558,37.73656200024287],[-100.04841100003458,37.736551999695081],[-100.04815900013951,37.736549999869546],[-100.04717199957727,37.736543999682162],[-100.04643699980844,37.736540000030566],[-100.04633800007424,37.736538999762438],[-100.04552399976437,37.736535000110578],[-100.04554700022891,37.73072499990441],[-100.04554800005381,37.730503999686562],[-100.04554899987873,37.730243000322368],[-100.04540800031174,37.730301000181662],[-100.04480400006416,37.730548999777987],[-100.04434799995457,37.730734000182167],[-100.04387799960129,37.730925999690456],[-100.04353600019284,37.73106499977132],[-100.04296700010535,37.731294999945348],[-100.04240399986567,37.731529999663358],[-100.04236299985777,37.731546000061449],[-100.04236399968269,37.731504999789294],[-100.04236600023083,37.731458999942063],[-100.04234899961408,37.73135499965705],[-100.04234699996425,37.730124999757983],[-100.04236000038304,37.729518000024733],[-100.04238100029944,37.72949700021411],[-100.04238299994927,37.729440999742749],[-100.04238299994927,37.729248999936573],[-100.04335600026779,37.729255000004642],[-100.04351699992625,37.729255999660737],[-100.04758300037932,37.729281999949777],[-100.04782199985561,37.729296000101655],[-100.05071800034665,37.728111000258131],[-100.05163600041359,37.727730000096997],[-100.05162299999481,37.726505999961134],[-100.05160000042859,37.725113000044196],[-100.05159600023062,37.72359399992655],[-100.05160399972824,37.722613999821419],[-100.05134500016047,37.722613999821419],[-100.04994199967162,37.722668000280748],[-100.04700900026897,37.722714999648481],[-100.04683400036679,37.722718000302514],[-100.04405500005161,37.722860000095118],[-100.04240700023871,37.722641000055972],[-100.04176500035629,37.722624000119964],[-100.0394649997169,37.722562999983026],[-100.03645500032137,37.722481000127502],[-100.03437899998796,37.722498000096337],[-100.03342900013398,37.722473999763004],[-100.03319899998021,37.722472000267771],[-100.03319899998021,37.722819999730724],[-100.03319899998021,37.723196000171363],[-100.03318200026177,37.723715000142278],[-100.03317600041399,37.723907999813079],[-100.03318300008669,37.724352999755091],[-100.03320099963004,37.726106999813226],[-100.03320099963004,37.727007999834271],[-100.03319999980511,37.728369999985127],[-100.03319399995733,37.728849999646428],[-100.03319200030751,37.729003999938371],[-100.03302800027598,37.729005000308298],[-100.03254600022713,37.729022000200729],[-100.02979299985122,37.729116999736654],[-100.02979299985122,37.729193999645041],[-100.02680299964885,37.729176999792095],[-100.02675099977031,37.729172000085377],[-100.02659299958657,37.72917000006052],[-100.02411100027062,37.729143000074551],[-100.02330299980855,37.729134999971549],[-100.02318200033302,37.729139999680761],[-100.02252399965879,37.729132999945691],[-100.02094500034116,37.72912899989376],[-100.02094500034116,37.729078000278456],[-100.02093600012033,37.728585000055276],[-100.01909999998645,37.725448999847458],[-100.01855199981536,37.725455999930787],[-100.01854599996759,37.725446999722053],[-100.01652200041104,37.725433999971244],[-100.01628200021152,37.725450999972857],[-100.0160830000199,37.725465000138428],[-100.01573499986536,37.725460999888369],[-100.01486299982916,37.725463000013455],[-100.01488000044591,37.727197999688379],[-100.01488499957047,37.727850999950334],[-100.01487700007287,37.729109999999409],[-100.01487700007287,37.729172999742538],[-100.01487399969982,37.731264999716053],[-100.0148789997227,37.73222799987316],[-100.01489600033945,37.733462999779697],[-100.01489499961622,37.733637999777145],[-100.0148939997913,37.734041000341676],[-100.01489200014147,37.734475000081396],[-100.01489100031657,37.734799000088174],[-100.01488999959334,37.735193000282152],[-100.01488799994351,37.735588999651902],[-100.01488499957047,37.736377999751305],[-100.01431100035842,37.736377000191411],[-100.01111399956851,37.736367000329061],[-100.01067900027365,37.736364999788108],[-100.00964999987862,37.736359000296105],[-100.00843999973364,37.736351999822574],[-100.00811400021871,37.736349999991639],[-100.00797600012645,37.736349999991639],[-100.0074249995823,37.736348000160611],[-100.00673800039236,37.736346999889882],[-100.00668200031588,37.736343999788041],[-100.00644700013925,37.736346000329569],[-100.00572999991373,37.736345000058812],[-100.00538299958411,37.736345000058812],[-100.00439099989731,37.736343999788041],[-100.00313300007176,37.736330999818826],[-100.00309999956148,37.736332000089767],[-100.00301900026892,37.736332999650323],[-100.00299699962932,37.736332999650323],[-100.00297800026105,37.736332999650323],[-100.00292899985725,37.736332999650323],[-100.00270799992433,37.736332000089767],[-100.00124800043238,37.736327000155725],[-100.00111600018791,37.736327000155725],[-100.00097399989768,37.736327000155725],[-100.00077200023131,37.736325999884713],[-99.999066999618691,37.736319999679168],[-99.998433000132195,37.736317999847373],[-99.998332999674773,37.736317999847373],[-99.997633999890937,37.736316000015478],[-99.997142999621261,37.736314000183576],[-99.996852000266443,37.736312999912386],[-99.996631000333494,37.736312000351617],[-99.996632000158414,37.736461000118474],[-99.996632000158414,37.73649199993217],[-99.996647000227028,37.73777799980833],[-99.996735999915487,37.740974999959299],[-99.996759000380024,37.741789999645476],[-99.996781999946251,37.742754000190637],[-99.99669999993047,37.742715000101313],[-99.996451000408442,37.742583999942241],[-99.994786999803708,37.741726999981928],[-99.99286899965405,37.740737999960643],[-99.990372000269488,37.739491000033048],[-99.988711000037796,37.73866099985996],[-99.988517999693954,37.738548999949089],[-99.988080000026045,37.738293000328433],[-99.987627000289507,37.738027999721993],[-99.98733799968619,37.737859000236554],[-99.986698000351907,37.737482999648449],[-99.98649199958929,37.737364999965749],[-99.98649199958929,37.737777000267343],[-99.986515999878719,37.737794000277084],[-99.986954000444953,37.738079999813912],[-99.987218999860502,37.738252999774943],[-99.987551000121528,37.738468999807552],[-99.987658000251642,37.738538999669707],[-99.987650999680639,37.738734999784199],[-99.987550000296608,37.741578000158306],[-99.987524000357354,37.742363999793312],[-99.987521999809218,37.742804000147601],[-99.987521999809218,37.742902999778117],[-99.986474000045931,37.742906999796254],[-99.986387000007298,37.742907999978335],[-99.98634400034959,37.742907999978335],[-99.985669999781805,37.742909000160424],[-99.984869999715642,37.742910999814221],[-99.984729000148647,37.742910999814221],[-99.984308000199178,37.742902999778117],[-99.983953000371926,37.74289599992337],[-99.983688000058052,37.742890999722327],[-99.983678000012318,37.743338000309208],[-99.983576999729976,37.743339999951367],[-99.981927000267248,37.74330299981397],[-99.981817999588984,37.74330100017081],[-99.981338999913206,37.743293000176877],[-99.980964999819378,37.743284000005012],[-99.980847999643515,37.743274999832124],[-99.980850000191651,37.742183000091096],[-99.979156000347984,37.742163999994645],[-99.977681999714051,37.742147000278081],[-99.977545000345003,37.742146000085704],[-99.975960000281276,37.742125999787064],[-99.975978999649541,37.742985999933097],[-99.975971999976863,37.743145000132685],[-99.975968999603808,37.743224000015509],[-99.977008000044577,37.743236000017319],[-99.977022000288272,37.7439239997084],[-99.976469000094312,37.743924999876747],[-99.976480999789885,37.744586999678639],[-99.975908000402754,37.744417000088539],[-99.975325999896484,37.74424400032624],[-99.974873999984865,37.744110000244774],[-99.974448000012515,37.743995999719452],[-99.973479999716844,37.743705000161931],[-99.972881000390458,37.74352900034544],[-99.971728000146868,37.74320299983011],[-99.970655000269232,37.742899999941919],[-99.969871000096617,37.742670000300585],[-99.969900000408913,37.742352999839731],[-99.969941000416796,37.742180999707251],[-99.969941000416796,37.742033999764622],[-99.969938000043769,37.740460999842711],[-99.969958000135236,37.739572000007719],[-99.969564999774846,37.739564999838009],[-99.969149999673149,37.73958099992052],[-99.969101000167669,37.739579999693483],[-99.967992000305017,37.739567000292496],[-99.967911000114171,37.739567000292496],[-99.965864999917997,37.739542000290555],[-99.965407000158592,37.739539000318146],[-99.965409999633323,37.741000999685141],[-99.965417000204326,37.741392999855016],[-99.965577000037911,37.741437999721775],[-99.965847000374666,37.741515000314273],[-99.966143999577255,37.741600000294127],[-99.966752000022794,37.741772999843022],[-99.967033000230188,37.741852999965779],[-99.967459000202538,37.741963000171005],[-99.967920000334985,37.742099000263359],[-99.968255000070741,37.742196999934706],[-99.968349999606971,37.742225000324353],[-99.9683649996756,37.743022000048427],[-99.968363999850681,37.74306899999501],[-99.969746000423129,37.743462000043003],[-99.969851999830027,37.743496000288872],[-99.969852999654947,37.743943000063418],[-99.971889999630264,37.744528999645077],[-99.972130999654681,37.744598000010562],[-99.972118999959136,37.745666999863126],[-99.972106000438643,37.746754000115693],[-99.972104999715427,37.746821999698241],[-99.972118999959136,37.746886000125727],[-99.97211800013423,37.747769000207633],[-99.972113000111335,37.74803699966391],[-99.972110999563213,37.748151999758534],[-99.972940999766607,37.748317000168925],[-99.97298099994957,37.748195000266847],[-99.973713000243663,37.748325999728692],[-99.974591999952551,37.748498999893535],[-99.974818999733273,37.748543000306157],[-99.975224999614142,37.748623000214479],[-99.975402999889369,37.74865800032471],[-99.975920999923233,37.74875900014424],[-99.976612000209457,37.748894999824117],[-99.977131000068226,37.748996000030438],[-99.977649000102076,37.749098000197407],[-99.97868599999471,37.749301000013823],[-99.97899999981405,37.749386999670115],[-99.979048000392964,37.749400000187642],[-99.97906299956324,37.749402999760385],[-99.979163000020691,37.749418999847137],[-99.979339999572687,37.749448999822917],[-99.979359999664169,37.749451000010261],[-99.97937700028092,37.749642999988197],[-99.979384999778532,37.749727999867424],[-99.979388000151587,37.749768999991574],[-99.979392000349549,37.749804000270089],[-99.979394999824265,37.749842000087],[-99.979397000372416,37.74987199989129],[-99.979397000372416,37.749918999749625],[-99.979395999649185,37.750110999933867],[-99.979394999824265,37.750208000277794],[-99.979394999824265,37.750399999712187],[-99.979393999999374,37.750561999846262],[-99.979005999661851,37.7505609997676],[-99.978824999911879,37.750558000241853],[-99.978604999803849,37.75056500008219],[-99.978474000282603,37.751720000183361],[-99.978444000145373,37.751989000305898],[-99.978797000322785,37.752006999951767],[-99.978805999645303,37.752286000295413],[-99.978809000018344,37.752337000259764],[-99.97901999990556,37.752335000150424],[-99.979048000392964,37.752335000150424],[-99.979286999869245,37.752326999712452],[-99.979289000417381,37.752579000307854],[-99.979291000067207,37.752914999766581],[-99.97930199993786,37.754014999800617],[-99.979516000198103,37.754016999864547],[-99.982241000086603,37.754032000342406],[-99.98294300024348,37.754014999800617],[-99.98489700037814,37.753970999800735],[-99.985051000363924,37.753971999833304],[-99.988155000369119,37.753986000287917],[-99.990788000196105,37.75395499998799],[-99.991163000114824,37.75395099985672],[-99.992985000005007,37.753928999841001],[-99.996611000242027,37.753866999890697],[-99.996596999998317,37.755466000019766],[-99.996596999998317,37.755512999876068],[-99.996593999625276,37.75590899991267],[-99.996591999975436,37.756049999968212],[-99.996617000089799,37.758627999974586],[-99.996616000264879,37.758779000206147],[-99.996612999891852,37.758997999886112],[-99.996593999625276,37.760297000060199],[-99.996583999579528,37.761899000184819],[-99.996576000081916,37.764914000054283],[-99.996564000386343,37.765246999952055],[-99.996552999617379,37.765545999730094],[-99.996561999838221,37.766335000031233],[-99.996566999861102,37.767098999802045],[-99.996566999861102,37.768778000221417],[-99.996552999617379,37.769910999784145],[-99.996550000142648,37.772209000346351],[-99.996550000142648,37.772469000350462],[-99.996554000340609,37.774966000199463],[-99.996526999678125,37.778279999976519],[-99.996515999807457,37.779543999759468],[-99.99652400020338,37.779656999785161],[-99.996478999997549,37.779658000180468],[-99.996131999667909,37.779656999785161],[-99.996136999690776,37.779845999705955],[-99.996145999911604,37.780310000144269],[-99.99655699981534,37.78031299988362],[-99.996559000363476,37.780378999798486],[-99.99722100033739,37.78039199983931],[-99.997412000133096,37.780395999960653],[-99.997920000121212,37.780398000021229],[-99.999485999918335,37.780402000142246],[-99.999660999820534,37.780402000142246],[-100.0000099998,37.780402999817461],[-100.0017410003519,37.780424000093923],[-100.00190299983528,37.78042600015376],[-100.00231700011206,37.780430999948088],[-100.00327199998893,37.780433000007726],[-100.00379000002279,37.780435000067314],[-100.00463199992176,37.78043900018632],[-100.00492300017488,37.78043900018632],[-100.00553499992007,37.78043900018632],[-100.00563200000444,37.780441999920427],[-100.00631300024492,37.780457999683641],[-100.00668999981349,37.780463000185819],[-100.00750199957521,37.780441000245737],[-100.00780299987407,37.780422000034044],[-100.00823600041745,37.780395999960653],[-100.00912699982189,37.780358000219245],[-100.01012199988172,37.780325999936053],[-100.01048199973182,37.78032100013462],[-100.01067900027365,37.780317999685593],[-100.01139099957794,37.780332999799498],[-100.01159300014262,37.780336999924025],[-100.01160499983818,37.780428000213533],[-100.01170600012053,37.780591999960848],[-100.01171500034137,37.78100600031047],[-100.01171600016627,37.781164000076132],[-100.01171600016627,37.78121700004764],[-100.0111279998122,37.781215000009219],[-100.01022200033914,37.781210999932199],[-100.01017600030839,37.781210000267912],[-100.01017899978314,37.781467999825459],[-100.01018600035412,37.782097999996545],[-100.01019100037702,37.782661000175651],[-100.01019700022479,37.783265000343604],[-100.01020499972239,37.784005999907833],[-100.01020899992035,37.784463999938957],[-100.01020899992035,37.784493000280946],[-100.01025300030129,37.784493000280946],[-100.01025599977602,37.784542000098575],[-100.01025900014908,37.784596000106227],[-100.0102609997989,37.784631999852735],[-100.01026599982175,37.784713999722655],[-100.01026699964667,37.784731000307708],[-100.01029000011121,37.785046999904537],[-100.01030799965456,37.785296000236997],[-100.01032600009623,37.785544999730469],[-100.01033500031706,37.785675999782988],[-100.01034100016484,37.785759000227202],[-100.01034199998975,37.785795000117155],[-100.01035600023344,37.786003000163547],[-100.01035899970819,37.786044999658152],[-100.0103739997768,37.786217000043955],[-100.01037899979966,37.786292999872273],[-100.01039300004338,37.78654099996411],[-100.01041099958671,37.786735999698081],[-100.01040999976182,37.786844000017368],[-100.01040599956386,37.787168000028387],[-100.01040499973894,37.787287999671946],[-100.01040399991405,37.787395999894521],[-100.01040399991405,37.787414000152886],[-100.01040300008913,37.78743100011679],[-100.01040300008913,37.787441000177282],[-100.01040300008913,37.787461999873891],[-100.01066000000708,37.787463000163555],[-100.01077600035802,37.787463000163555],[-100.01077499963479,37.787797999887829],[-100.01077600035802,37.787846000069408],[-100.01037999962458,37.787847999928388],[-100.01000499970587,37.78785100007174],[-100.01000899990382,37.788242000199901],[-100.0100149997516,37.788749999676682],[-100.0100149997516,37.788791999739821],[-100.00998999963726,37.788791999739821],[-100.00994299978157,37.788791999739821],[-100.00994500032971,37.789010999986644],[-100.00994899962936,37.789418999872822],[-100.00995000035259,37.78947299986644],[-100.00995500037547,37.789934000151035],[-100.0099579998502,37.790129999704014],[-100.00996100022324,37.790394999689241],[-100.00996600024611,37.79085700014447],[-100.00996899972085,37.791100000045219],[-100.00997100026899,37.791318000313169],[-100.00997700011676,37.791779999966529],[-100.00998200013964,37.792248999725288],[-100.00998499961436,37.792394000243974],[-100.00998399978947,37.792413999730172],[-100.01029199976104,37.792414999952811],[-100.01040399991405,37.792416000175422],[-100.01090799970419,37.792417999910732],[-100.0114309997609,37.792419999645986],[-100.01181300025064,37.792422000091072],[-100.01214299996354,37.79242300031359],[-100.01327299974258,37.792426999783771],[-100.01327199991768,37.792340999769159],[-100.01321400019134,37.792325999962735],[-100.01319099972682,37.792304000004485],[-100.01315300009198,37.792265999996658],[-100.01311899975678,37.791462999819359],[-100.01311100025917,37.790514000233259],[-100.01310200003836,37.789463000080922],[-100.01401400025752,37.789479000021068],[-100.01408100020467,37.78948099983586],[-100.01468100025428,37.789463000080922],[-100.01496999995928,37.789453999846906],[-100.01495599971558,37.790152000309568],[-100.01495300024085,37.790531000193916],[-100.01494599966985,37.791375999865878],[-100.01495700043883,37.791840000327269],[-100.01496900013437,37.792340000255422],[-100.01498000000504,37.792968999817425],[-100.0149919997006,37.794161000297635],[-100.01498599985281,37.794694000082742],[-100.01498500002791,37.794781999869173],[-100.01510600040172,37.794781999869173],[-100.01686800001745,37.794784999730986],[-100.01771499993927,37.794785999921523],[-100.01887300020573,37.794787000112052],[-100.02031400032939,37.794788999783179],[-100.02150500020782,37.794791000164125],[-100.02289100007989,37.794792000354583],[-100.02375200024544,37.794792999835146],[-100.02396300013262,37.794794000025576],[-100.02401400018626,37.794795000215935],[-100.02411999959315,37.794795000215935],[-100.02411999959315,37.794833999822806],[-100.02411999959315,37.794863000354376],[-100.02412100031637,37.79507000024438],[-100.02415599957817,37.800104999798926],[-100.02421400020279,37.807449000313092],[-100.02423900031714,37.808998000109888],[-100.0242429996168,37.809258999858784],[-100.03082800009403,37.809248999912583],[-100.03213500032341,37.809246999923168],[-100.03326400027754,37.809245999928443],[-100.03327400032327,37.80760600030014],[-100.03323599979012,37.805928999698196],[-100.03324900020891,37.804962999796231],[-100.03326500010245,37.803792999813567],[-100.03326400027754,37.798545000039731],[-100.03323400014031,37.79469699994813],[-100.03486199986172,37.794702000196708],[-100.03591499964787,37.794706000253377],[-100.03676199956972,37.794705000061768],[-100.039315999754,37.794702999678542],[-100.03989999991009,37.794706999735112],[-100.04224800023005,37.794722999959411],[-100.04240600041379,37.794721999768022],[-100.04233799974342,37.791112000089711],[-100.0423009999335,37.78755299991019],[-100.04230000010858,37.787468000191801],[-100.0424900000794,37.787466000322539],[-100.04285199957931,37.787475000088804],[-100.05144499971956,37.787480000116233],[-100.05143700022197,37.786474000278993],[-100.05142700017623,37.784540000150123],[-100.05140799990966,37.782629000179568],[-100.05140100023695,37.781349000334096],[-100.05139100019122,37.780182999943499],[-100.05069700043026,37.780187999754268],[-100.05038899956038,37.780176999744121],[-100.04967700025607,37.780178999810637],[-100.0485950001576,37.780182999943499],[-100.04694499979655,37.780202000216626],[-100.04679099981077,37.780202000216626],[-100.0461520003014,37.780200000150742],[-100.04551000041899,37.780198999762767],[-100.04473100026921,37.780196999696798],[-100.04360700033796,37.780215000288592],[-100.04349000016208,37.78021899970949],[-100.04308799958088,37.780231000100933],[-100.04254600015588,37.780288999835413],[-100.04222899996347,37.780323000197235],[-100.0422239999406,37.780094999810579],[-100.0422230001157,37.779827999734316],[-100.04221300006995,37.779358000264594],[-100.04220999969689,37.77910300023084],[-100.04219800000133,37.778089000188842],[-100.04219800000133,37.778026999898913],[-100.0421820001078,37.776306999731545],[-100.04217999955966,37.776096000179756],[-100.04217899973477,37.776014999714036],[-100.04217700008493,37.775825000201841],[-100.04217500043512,37.775589000090378],[-100.04217200006205,37.775308999847546],[-100.0421670000392,37.774835000336239],[-100.04216200001632,37.774290000099434],[-100.04215699999345,37.773886000244168],[-100.04215299979549,37.773416999689125],[-100.04214799977262,37.773007999738006],[-100.04214500029788,37.772888000342157],[-100.04228199966693,37.772888000342157],[-100.04235100016221,37.772888000342157],[-100.04780400031227,37.772890999672647],[-100.04819599994943,37.772890999672647],[-100.04857800043916,37.772892000159459],[-100.04855300032482,37.773060000102149],[-100.0492289996441,37.773060000102149],[-100.04991800028048,37.772892000159459],[-100.05029400002414,37.7728990000168],[-100.05034000005487,37.772835000079553],[-100.05057199985848,37.772684000141176],[-100.05114699979374,37.772060999913826],[-100.05155699987257,37.771595999741152],[-100.05187900008785,37.771230000269753],[-100.05164399991121,37.771011999684916],[-100.05158100016202,37.770927999919905],[-100.05145700031346,37.77074800030509],[-100.05140700008474,37.770635999960696],[-100.05137100009973,37.770554000095451],[-100.05133299956658,37.770398999807448],[-100.05131000000037,37.770162000314791],[-100.05131400019833,37.769631000051206],[-100.05130300032766,37.769080999949161],[-100.05129400010682,37.768668000111546],[-100.05128499988601,37.768197999993681],[-100.05127900003824,37.767755999689577],[-100.05126099959656,37.766298000029721],[-100.05125999977166,37.765618999881845],[-100.05125999977166,37.765570000303541],[-100.05125100044913,37.76407599964854],[-100.05126099959656,37.762302000276122],[-100.05126499979451,37.761983000263413],[-100.05226599970213,37.761986000036167],[-100.05356100023594,37.761990999657208],[-100.05562999999833,37.761999999684321],[-100.0558400000606,37.761999999684321],[-100.05584199971044,37.761750999712874],[-100.05584400025856,37.76142799972736],[-100.05584400025856,37.761260000344805],[-100.05584500008348,37.761100000070833],[-100.05584500008348,37.760939000222592],[-100.0558459999084,37.760778000023926],[-100.0558459999084,37.7606180001277],[-100.05584699973329,37.760456999940551],[-100.05584799955821,37.760266000274157],[-100.05584799955821,37.760101000232268],[-100.05584699973329,37.759885000124733],[-100.05584799955821,37.759728000291936],[-100.05584799955821,37.759562999760149],[-100.05584799955821,37.759397000321513],[-100.05584799955821,37.759230999800224],[-100.05584900028144,37.759065000326729],[-100.05584900028144,37.758899999736578],[-100.05584300043364,37.758820000286377],[-100.05584900028144,37.758734000230533],[-100.05584900028144,37.758568000352042],[-100.05585000010636,37.758329999902003],[-100.05585099993125,37.75812600002282],[-100.05585199975617,37.758072999833345],[-100.05585199975617,37.757964000114953],[-100.05585199975617,37.757801999852269],[-100.05585199975617,37.75763999994512],[-100.05585299958108,37.757471999771838],[-100.05585299958108,37.757400000088097],[-100.05585299958108,37.757315999776665],[-100.05585400030431,37.757197999753032],[-100.05585400030431,37.757154000225661],[-100.05585400030431,37.756992000319912],[-100.05585400030431,37.756830000059416],[-100.05585400030431,37.756668000154356],[-100.05585500012923,37.756505999894607],[-100.05585500012923,37.756343999990314],[-100.05585500012923,37.756181999731325],[-100.05585599995413,37.756051999977132],[-100.05595800006138,37.756053999986051],[-100.05707100012199,37.756043999941134]],[[-100.04056899955668,37.789270999819536],[-100.04039700002754,37.790704000322826],[-100.0400270001317,37.791107999838495],[-100.03776199965242,37.791104999827382],[-100.03774300028415,37.789545000269797],[-100.03775400015482,37.789321999837789],[-100.03776199965242,37.789142000284372],[-100.03776099982751,37.789081000304726],[-100.03774999995686,37.788457999828402],[-100.03774499993398,37.788040000337524],[-100.03773999991111,37.787608000135293],[-100.03773900008619,37.787556000065514],[-100.0377380002613,37.787530999950711],[-100.03773400006332,37.787468000191801],[-100.03775099978176,37.787468000191801],[-100.03888899995674,37.787471000350585],[-100.03958199989277,37.78747300021972],[-100.04008099966006,37.787475000088804],[-100.04011699964508,37.787475000088804],[-100.04009800027681,37.78755299991019],[-100.04006800013958,37.787673999925325],[-100.03981299987144,37.788141999908298],[-100.03995699981149,37.788357000261485],[-100.04056899955668,37.789270999819536]]],[[[-99.951558000410074,37.765687999754704],[-99.951541999618243,37.765325999673649],[-99.951536999595376,37.764734000003457],[-99.951536999595376,37.764684999838806],[-99.951536999595376,37.764620000005046],[-99.951535999770456,37.764074999752559],[-99.95148399989192,37.76407599964854],[-99.95083899963646,37.764066999874039],[-99.950256000203609,37.764060999786984],[-99.949766999583744,37.764056000305921],[-99.948021999686446,37.764036000247657],[-99.94781499999722,37.764167999963881],[-99.947476000063503,37.764374000007876],[-99.946985999618732,37.764697999798656],[-99.945133999591334,37.765747999993238],[-99.944767999893429,37.765948999833952],[-99.944397999997591,37.766143999920516],[-99.944023999903763,37.766334000165791],[-99.943940000238186,37.766375000319172],[-99.943644999787068,37.766518000035262],[-99.94342999970192,37.766620000190208],[-99.943262000370751,37.766697000144333],[-99.942874999858162,37.766870999819297],[-99.942520999855816,37.76702300012262],[-99.94243899984005,37.767054999772924],[-99.942470999627105,37.767740000017817],[-99.942478000198122,37.767891999955268],[-99.942479000023027,37.767914000079223],[-99.942479999847933,37.767931000267275],[-99.942488000243856,37.768095000043239],[-99.942329000235191,37.768126000098597],[-99.941781000064111,37.768233000075199],[-99.939027999688193,37.768771999806503],[-99.937985999772707,37.769001000148698],[-99.938143000131532,37.772053999977196],[-99.938476000217463,37.778824999910164],[-99.938784000189031,37.778770999946268],[-99.939106000404323,37.778704000317489],[-99.939416999850636,37.778627000086317],[-99.939775999875835,37.778523000052445],[-99.940087000220444,37.778418000170255],[-99.940462000139178,37.778274000332651],[-99.940791000027147,37.778130000214581],[-99.941202999755788,37.777922999730947],[-99.941500999681622,37.777753000056165],[-99.941779000414286,37.777578000003473],[-99.942084000012827,37.777363999960286],[-99.942345999953631,37.777159000319998],[-99.942580000305355,37.77695400011131],[-99.942931999759537,37.776453999746451],[-99.943120999905432,37.776184999835323],[-99.943961000154573,37.775383999788318],[-99.944042000345434,37.775277000218857],[-99.944065999736566,37.77524499986626],[-99.945347000026658,37.77393799999075],[-99.945846999618865,37.773266000229334],[-99.947461999819794,37.771081000206621],[-99.949985000041934,37.767782999793582],[-99.950322000325826,37.767335000028076],[-99.951144999958217,37.766238000237401],[-99.951558000410074,37.765687999754704]]],[[[-99.956228000212406,37.735677999740801],[-99.956253000326768,37.735561999875195],[-99.956202000273151,37.735558000170549],[-99.956053000310234,37.73554099964737],[-99.956060999807846,37.735488000331387],[-99.956095000143023,37.735285999856195],[-99.956035999693484,37.735280000276802],[-99.955136999893114,37.735198999868643],[-99.955131000045327,37.735242000087581],[-99.954982000082424,37.735228000349458],[-99.954948999572139,37.735225000202227],[-99.954941000074541,37.735295999864547],[-99.954936999876566,37.735335999884477],[-99.954930000203873,37.735389000019644],[-99.9550930004105,37.73540099987077],[-99.955127999672271,37.735402999727327],[-99.955115999976726,37.73549200003982],[-99.955104000281153,37.735571999846279],[-99.955570000436481,37.735614000278396],[-99.956228000212406,37.735677999740801]]],[[[-99.957013000209969,37.736430999850981],[-99.957070000111372,37.736121999727565],[-99.956661999682368,37.736077999745298],[-99.956497999650836,37.736059999777346],[-99.956521999940279,37.735878000013187],[-99.95654299985668,37.735817999704054],[-99.956460000016023,37.735809000044199],[-99.95559899985048,37.735716999985492],[-99.955594999652519,37.73576600015457],[-99.955346000130504,37.735741000289842],[-99.954570000353755,37.735664000085123],[-99.954192000061994,37.735626999663026],[-99.954185000389302,37.735674000042422],[-99.95418100019134,37.735710000161696],[-99.954171999970512,37.735769999847982],[-99.955120999999593,37.735861000273914],[-99.955111999778765,37.735896000025434],[-99.9552349998024,37.735907000228096],[-99.955285999856017,37.735912000190503],[-99.955280000008244,37.735943000234073],[-99.955271999612336,37.735989999702426],[-99.95518999959657,37.735979999787808],[-99.955180000449133,37.736033000172405],[-99.95517200005321,37.736072999794096],[-99.95520200019044,37.736075999906966],[-99.955254999893896,37.736080999857961],[-99.955247000396284,37.736145999900572],[-99.954967000013809,37.736119000326987],[-99.954957999792967,37.736170000065854],[-99.955217000259054,37.7361940002233],[-99.955263000289804,37.73619900016633],[-99.955252000419151,37.736288999793459],[-99.955557000017691,37.736319000118492],[-99.955541999949062,37.736387000052417],[-99.955663000322886,37.736398999741724],[-99.955649000079191,37.736509000236978],[-99.956589999712349,37.736586999830372],[-99.956603999956059,37.736588000097854],[-99.956925000346416,37.736615000210826],[-99.956978999874778,37.736618999858365],[-99.957013000209969,37.736430999850981]]],[[[-99.960675000431991,37.738079999813912],[-99.960671000234029,37.737823999992251],[-99.960667999860988,37.737589999902525],[-99.960667000036054,37.7375279997609],[-99.960663999663026,37.737237000350191],[-99.960655000340495,37.736530000190236],[-99.960655000340495,37.73640699977036],[-99.960653999617278,37.735930000194443],[-99.960653999617278,37.735881999700545],[-99.959379999898189,37.735858000152341],[-99.959386999570881,37.737184000117097],[-99.959389000119018,37.737544999827826],[-99.959398000339831,37.738360999869997],[-99.960513999875175,37.73835300005257],[-99.960543000187513,37.738316999797654],[-99.960650000317642,37.738142999739779],[-99.960675000431991,37.738079999813912]]],[[[-99.976202999955547,37.779583000315661],[-99.976088000327806,37.779408000335117],[-99.974620000439955,37.777035000258252],[-99.97480799986262,37.776962000015807],[-99.975046000412306,37.776869000273628],[-99.975085999696972,37.776854000166843],[-99.974324000163946,37.77562100029408],[-99.975255999576277,37.775258000099967],[-99.975178999583392,37.775133999689764],[-99.973884999772807,37.773041999898297],[-99.973382999632491,37.772230000110248],[-99.974318000316174,37.772233999963149],[-99.97340799974684,37.770735999794468],[-99.972067000080585,37.768587000029299],[-99.969801999601302,37.765037999850215],[-99.969798000301665,37.764866999779485],[-99.969796999578449,37.764831000349588],[-99.969708999714896,37.761484000146908],[-99.969718999760644,37.761110000142494],[-99.969726000331661,37.760107999879992],[-99.969708999714896,37.759713000258756],[-99.96968699997359,37.759622000039904],[-99.969636999744878,37.75948900006501],[-99.969675000278016,37.759364000238982],[-99.969707000065071,37.758523000248076],[-99.969683999600548,37.756766999704489],[-99.969664000407363,37.755239999719535],[-99.969642999592651,37.754232000030647],[-99.96964099994284,37.754117000151652],[-99.969657999661266,37.753661999742434],[-99.969678999577667,37.753280999673059],[-99.96970500041526,37.752997000011696],[-99.969713999737763,37.752971000238325],[-99.969728999806378,37.75293299989751],[-99.969624000224385,37.752930999804228],[-99.969611999630516,37.751782999864098],[-99.969523999766963,37.751780999739779],[-99.967001000443148,37.75172900003956],[-99.966753999672619,37.751726999913785],[-99.966506999800416,37.751731000165286],[-99.966260999753118,37.751742000145626],[-99.96601499970582,37.751758999789111],[-99.965768999658536,37.751781999801942],[-99.965525000159374,37.751811000178478],[-99.965281999586821,37.751847000262707],[-99.965024999668856,37.751892000165853],[-99.964768999575824,37.751943999751468],[-99.964515999855834,37.752002999715188],[-99.964265999610575,37.752069000040152],[-99.964018999738371,37.752141999997349],[-99.96377500023921,37.752221000220239],[-99.963535000039684,37.752307000034278],[-99.963298000213229,37.752399000071584],[-99.963058000013731,37.752492000047063],[-99.962837999905702,37.752603000116814],[-99.962613999599697,37.752715000069649],[-99.962529000109214,37.75276100020406],[-99.962396000039817,37.752832000092958],[-99.962182999604494,37.75295500020934],[-99.961975000090334,37.753083999678644],[-99.961773000423975,37.753218999890024],[-99.961576999707091,37.753359000059497],[-99.961387999561211,37.753504000158706],[-99.961216999856973,37.753643999788913],[-99.961204000336508,37.753655000195074],[-99.960538000164647,37.754250999869932],[-99.960446000103133,37.754333000054856],[-99.960179000139433,37.7546629999323],[-99.958907999895075,37.756351999993917],[-99.958810999810694,37.756480999932556],[-99.959465000286983,37.75754100014283],[-99.960523999920937,37.759258000175628],[-99.960662999838092,37.759483000316791],[-99.960651999967453,37.761377000348283],[-99.96064000027188,37.76240299993551],[-99.960573000324729,37.762402000016856],[-99.959891000259347,37.762392000119924],[-99.957397000349516,37.762357000114761],[-99.956648000336997,37.762346000292332],[-99.956646999613753,37.76260600017671],[-99.956639999941075,37.764104000281534],[-99.958219999981907,37.764124000321338],[-99.958225999829693,37.765358000058235],[-99.958226999654599,37.765368000264374],[-99.95823099985256,37.76609300024252],[-99.956899000407148,37.767762000186991],[-99.956988999920512,37.767809000042185],[-99.957680000206736,37.76815499974915],[-99.958251999768947,37.768443000216337],[-99.958312999868326,37.768461999956223],[-99.958574999809144,37.768461999956223],[-99.960655000340495,37.768464000339677],[-99.960838999565198,37.768466000012943],[-99.963156999747937,37.76849799974898],[-99.96530599987625,37.768526999963782],[-99.966865999825615,37.768548000063248],[-99.968306000124372,37.770877999794699],[-99.968536000278149,37.771249000003635],[-99.968835000028875,37.771732999837837],[-99.970466000123352,37.774371000324919],[-99.970775999744745,37.774249999832591],[-99.97079099981336,37.774273999711234],[-99.971072000020754,37.774727999972221],[-99.971590999879524,37.775569000311094],[-99.972005999981235,37.77623599965348],[-99.972149999921271,37.776468000205981],[-99.973074999660895,37.7761020000004],[-99.973843999764924,37.777338000231317],[-99.974125999797238,37.777228000075361],[-99.974309999920251,37.777155999742625],[-99.975699000165378,37.779402000072835],[-99.975823000013946,37.779574999984781],[-99.976202999955547,37.779583000315661]]],[[[-100.00577400029466,37.717503999645935],[-100.00578199979228,37.714520000134414],[-100.00003499991435,37.71452199984423],[-99.996726999694644,37.714519000279431],[-99.996663000120549,37.714520000134414],[-99.996547999594512,37.714520999989325],[-99.996603999671009,37.717444000082423],[-99.996622999937586,37.721089000306748],[-99.996632000158414,37.721190000081499],[-99.996647000227028,37.72136700018477],[-99.996647000227028,37.721525000156539],[-100.00003900011231,37.721539000353623],[-100.00575099983014,37.721581999978156],[-100.00575400020318,37.721493000000592],[-100.00576500007385,37.721118999684364],[-100.00577400029466,37.717503999645935]]],[[[-100.06957099980833,37.772972000010718],[-100.06955999993767,37.771901000283691],[-100.06956400013563,37.771336000217651],[-100.06956599978547,37.77101399999939],[-100.06951499973184,37.767622000290132],[-100.06952899997553,37.766223000104233],[-100.06952300012776,37.765682999673466],[-100.06809299987475,37.765675999843175],[-100.06809700007271,37.765054000106552],[-100.06810100027067,37.76474000003585],[-100.06810299992048,37.764530000031705],[-100.06866100013731,37.764531999811354],[-100.06951800010488,37.76453600008071],[-100.06953200034859,37.762162999907623],[-100.06953399999841,37.761805000034549],[-100.06956400013563,37.759637000091523],[-100.06945199998265,37.759634000223457],[-100.06772600035194,37.759623999952304],[-100.06772600035194,37.759569000212082],[-100.06773600039769,37.75844900022274],[-100.06774300007037,37.757583000182727],[-100.06774300007037,37.757565999746724],[-100.06494799986167,37.757560999826602],[-100.06479399987589,37.757738000343444],[-100.06468099989799,37.757866999995926],[-100.05878099985918,37.764586000233159],[-100.05856699959894,37.764831000349588],[-100.05838800039709,37.765034000318167],[-100.0582479997567,37.765193999893803],[-100.05809499959584,37.765368000264374],[-100.05796300024967,37.76551800035319],[-100.05790899982298,37.765579999770807],[-100.05785899959426,37.765636999762251],[-100.05784799972363,37.765650000264962],[-100.05608199990994,37.767661000034401],[-100.05602199963549,37.767730999979044],[-100.05402900004108,37.770021000175333],[-100.05265499986457,37.771605999813794],[-100.05290400028491,37.77199300009557],[-100.05348300041813,37.77132900021239],[-100.05540800024048,37.772395000076429],[-100.05595200021359,37.772693000287212],[-100.05594399981769,37.772915999768898],[-100.05597999980269,37.772917000255418],[-100.05650200003451,37.772917000255418],[-100.05659900011888,37.772918000031858],[-100.05677200037124,37.772918000031858],[-100.05695300012121,37.772917000255418],[-100.05965500044348,37.77293099996465],[-100.05983299982042,37.772940999856736],[-100.06034500000649,37.772928999702039],[-100.0604720002281,37.772934999779636],[-100.0642170002908,37.772949000195482],[-100.06869799994725,37.772968000197743],[-100.06957099980833,37.772972000010718]]]]},"properties":{"AREALAND":39205823,"AREAWATER":272373,"BASENAME":"Dodge City","CBSAPCI":"Y","CENTLAT":"+37.7606022","CENTLON":"-100.0182533","FUNCSTAT":"A","GEOID":"2018250","INTPTLAT":"+37.7606765","INTPTLON":"-100.0184384","LSADC":"25","MTFCC":"G4110","NAME":"Dodge City city","NECTAPCI":"N","OBJECTID":30293,"OID":"27890264960149","PLACE":"18250","PLACECC":"C5","PLACENS":"00485563","STATE":"20","DISP_CLR":1}}]}